{"type": "FeatureCollection", "features": [ {"type": "Feature", "properties": {"norad_id": 32169, "name": "FENGYUN 1C DEB", "group": "fengyun-1c-debris", "lat": -76.31531993818807, "lon": -42.27508749342167, "alt_km": 693.5289611171638, "timestamp": "2025-12-13T05:42:57.845589+00:00", "meta": {"OBJECT_NAME": "FENGYUN 1C DEB", "OBJECT_ID": "1999-025CTP", "EPOCH": "2025-12-10T19:16:32.438208", "MEAN_MOTION": 14.67617508, "ECCENTRICITY": 0.00335817, "INCLINATION": 98.5579, "RA_OF_ASC_NODE": 173.3839, "ARG_OF_PERICENTER": 126.1641, "MEAN_ANOMALY": 234.2677, "EPHEMERIS_TYPE": 0, "CLASSIFICATION_TYPE": "U", "NORAD_CAT_ID": 32169, "ELEMENT_SET_NO": 999, "REV_AT_EPOCH": 96590, "BSTAR": 0.0079467409, "MEAN_MOTION_DOT": 0.00045777, "MEAN_MOTION_DDOT": 0}, "tle": {"line1": "1 32169U 99025CTP 25344.80315322  .00045777  00000+0  79467-2 0  9992", "line2": "2 32169  98.5579 173.3839 0033581 126.1641 234.2677 14.67617508965906"}}, "geometry": {"type": "Point", "coordinates": [-42.27508749342167, -76.31531993818807]}}, {"type": "Feature", "properties": {"norad_id": 32171, "name": "FENGYUN 1C DEB", "group": "fengyun-1c-debris", "lat": 13.438512242932054, "lon": 67.4943247358085, "alt_km": 1444.4717079797347, "timestamp": "2025-12-13T05:42:57.845600+00:00", "meta": {"OBJECT_NAME": "FENGYUN 1C DEB", "OBJECT_ID": "1999-025CTR", "EPOCH": "2025-12-10T23:20:02.609952", "MEAN_MOTION": 13.425366, "ECCENTRICITY": 0.0488569, "INCLINATION": 102.8034, "RA_OF_ASC_NODE": 241.5025, "ARG_OF_PERICENTER": 9.7691, "MEAN_ANOMALY": 7.7645, "EPHEMERIS_TYPE": 0, "CLASSIFICATION_TYPE": "U", "NORAD_CAT_ID": 32171, "ELEMENT_SET_NO": 999, "REV_AT_EPOCH": 60592, "BSTAR": 0.0065755, "MEAN_MOTION_DOT": 7.529e-05, "MEAN_MOTION_DDOT": 0}, "tle": {"line1": "1 32171U 99025CTR 25344.97225243  .00007529  00000+0  65755-2 0  9993", "line2": "2 32171 102.8034 241.5025 0488569   9.7691   7.7645 13.42536600605926"}}, "geometry": {"type": "Point", "coordinates": [67.4943247358085, 13.438512242932054]}}, {"type": "Feature", "properties": {"norad_id": 32174, "name": "FENGYUN 1C DEB", "group": "fengyun-1c-debris", "lat": 15.773257734240818, "lon": -128.18082542758845, "alt_km": 813.8457043949347, "timestamp": "2025-12-13T05:42:57.845613+00:00", "meta": {"OBJECT_NAME": "FENGYUN 1C DEB", "OBJECT_ID": "1999-025CTU", "EPOCH": "2025-12-08T09:45:57.975264", "MEAN_MOTION": 14.17910967, "ECCENTRICITY": 0.01499603, "INCLINATION": 98.6011, "RA_OF_ASC_NODE": 44.6876, "ARG_OF_PERICENTER": 258.4641, "MEAN_ANOMALY": 99.9665, "EPHEMERIS_TYPE": 0, "CLASSIFICATION_TYPE": "U", "NORAD_CAT_ID": 32174, "ELEMENT_SET_NO": 999, "REV_AT_EPOCH": 64044, "BSTAR": 0.00054004697, "MEAN_MOTION_DOT": 1.19e-05, "MEAN_MOTION_DDOT": 0}, "tle": {"line1": "1 32174U 99025CTU 25342.40692101  .00001190  00000+0  54005-3 0  9998", "line2": "2 32174  98.6011  44.6876 0149960 258.4641  99.9665 14.17910967640445"}}, "geometry": {"type": "Point", "coordinates": [-128.18082542758845, 15.773257734240818]}}, {"type": "Feature", "properties": {"norad_id": 32175, "name": "FENGYUN 1C DEB", "group": "fengyun-1c-debris", "lat": 14.367659187478237, "lon": -26.499937092984034, "alt_km": 844.7493434667176, "timestamp": "2025-12-13T05:42:57.845624+00:00", "meta": {"OBJECT_NAME": "FENGYUN 1C DEB", "OBJECT_ID": "1999-025CTV", "EPOCH": "2025-12-11T05:26:35.231424", "MEAN_MOTION": 13.94782759, "ECCENTRICITY": 0.01523951, "INCLINATION": 98.824, "RA_OF_ASC_NODE": 333.8565, "ARG_OF_PERICENTER": 327.1838, "MEAN_ANOMALY": 31.993, "EPHEMERIS_TYPE": 0, "CLASSIFICATION_TYPE": "U", "NORAD_CAT_ID": 32175, "ELEMENT_SET_NO": 999, "REV_AT_EPOCH": 59819, "BSTAR": 0.0042359746, "MEAN_MOTION_DOT": 6.217e-05, "MEAN_MOTION_DDOT": 0}, "tle": {"line1": "1 32175U 99025CTV 25345.22679666  .00006217  00000+0  42360-2 0  9998", "line2": "2 32175  98.8240 333.8565 0152395 327.1838  31.9930 13.94782759598193"}}, "geometry": {"type": "Point", "coordinates": [-26.499937092984034, 14.367659187478237]}}, {"type": "Feature", "properties": {"norad_id": 32177, "name": "FENGYUN 1C DEB", "group": "fengyun-1c-debris", "lat": -74.5301909602517, "lon": 141.44059624344288, "alt_km": 743.2052342949173, "timestamp": "2025-12-13T05:42:57.845636+00:00", "meta": {"OBJECT_NAME": "FENGYUN 1C DEB", "OBJECT_ID": "1999-025CTX", "EPOCH": "2025-12-12T07:06:01.597248", "MEAN_MOTION": 14.56212488, "ECCENTRICITY": 0.00519583, "INCLINATION": 99.0456, "RA_OF_ASC_NODE": 355.5622, "ARG_OF_PERICENTER": 46.4975, "MEAN_ANOMALY": 314.0521, "EPHEMERIS_TYPE": 0, "CLASSIFICATION_TYPE": "U", "NORAD_CAT_ID": 32177, "ELEMENT_SET_NO": 999, "REV_AT_EPOCH": 71032, "BSTAR": 0.002207509, "MEAN_MOTION_DOT": 9.895e-05, "MEAN_MOTION_DDOT": 0}, "tle": {"line1": "1 32177U 99025CTX 25346.29585182  .00009895  00000+0  22075-2 0  9993", "line2": "2 32177  99.0456 355.5622 0051958  46.4975 314.0521 14.56212488710326"}}, "geometry": {"type": "Point", "coordinates": [141.44059624344288, -74.5301909602517]}}, {"type": "Feature", "properties": {"norad_id": 32178, "name": "FENGYUN 1C DEB", "group": "fengyun-1c-debris", "lat": 50.91511701424173, "lon": -24.188680383721188, "alt_km": 809.880061342933, "timestamp": "2025-12-13T05:42:57.845647+00:00", "meta": {"OBJECT_NAME": "FENGYUN 1C DEB", "OBJECT_ID": "1999-025CTY", "EPOCH": "2025-12-07T17:50:56.721120", "MEAN_MOTION": 14.22943585, "ECCENTRICITY": 0.00947686, "INCLINATION": 100.3035, "RA_OF_ASC_NODE": 342.3342, "ARG_OF_PERICENTER": 337.1658, "MEAN_ANOMALY": 22.5314, "EPHEMERIS_TYPE": 0, "CLASSIFICATION_TYPE": "U", "NORAD_CAT_ID": 32178, "ELEMENT_SET_NO": 999, "REV_AT_EPOCH": 63932, "BSTAR": 0.0022460255, "MEAN_MOTION_DOT": 5.238e-05, "MEAN_MOTION_DDOT": 0}, "tle": {"line1": "1 32178U 99025CTY 25341.74371205  .00005238  00000+0  22460-2 0  9993", "line2": "2 32178 100.3035 342.3342 0094768 337.1658  22.5314 14.22943585639326"}}, "geometry": {"type": "Point", "coordinates": [-24.188680383721188, 50.91511701424173]}}, {"type": "Feature", "properties": {"norad_id": 32179, "name": "FENGYUN 1C DEB", "group": "fengyun-1c-debris", "lat": 31.10634013716145, "lon": 30.627292370010366, "alt_km": 976.0566923035394, "timestamp": "2025-12-13T05:42:57.845657+00:00", "meta": {"OBJECT_NAME": "FENGYUN 1C DEB", "OBJECT_ID": "1999-025CTZ", "EPOCH": "2025-12-11T09:09:52.384320", "MEAN_MOTION": 14.03679144, "ECCENTRICITY": 0.01452559, "INCLINATION": 98.9099, "RA_OF_ASC_NODE": 34.2393, "ARG_OF_PERICENTER": 193.6931, "MEAN_ANOMALY": 183.3562, "EPHEMERIS_TYPE": 0, "CLASSIFICATION_TYPE": "U", "NORAD_CAT_ID": 32179, "ELEMENT_SET_NO": 999, "REV_AT_EPOCH": 65709, "BSTAR": 0.00021188439, "MEAN_MOTION_DOT": 3.22e-06, "MEAN_MOTION_DDOT": 0}, "tle": {"line1": "1 32179U 99025CTZ 25345.38185630  .00000322  00000+0  21188-3 0  9999", "line2": "2 32179  98.9099  34.2393 0145255 193.6931 183.3562 14.03679144657090"}}, "geometry": {"type": "Point", "coordinates": [30.627292370010366, 31.10634013716145]}}, {"type": "Feature", "properties": {"norad_id": 32180, "name": "FENGYUN 1C DEB", "group": "fengyun-1c-debris", "lat": -78.14832000177313, "lon": 81.00717229043569, "alt_km": 924.0563104758685, "timestamp": "2025-12-13T05:42:57.845668+00:00", "meta": {"OBJECT_NAME": "FENGYUN 1C DEB", "OBJECT_ID": "1999-025CUA", "EPOCH": "2025-12-11T09:04:15.508128", "MEAN_MOTION": 13.82327177, "ECCENTRICITY": 0.01363004, "INCLINATION": 99.5861, "RA_OF_ASC_NODE": 25.4776, "ARG_OF_PERICENTER": 214.0644, "MEAN_ANOMALY": 169.2809, "EPHEMERIS_TYPE": 0, "CLASSIFICATION_TYPE": "U", "NORAD_CAT_ID": 32180, "ELEMENT_SET_NO": 999, "REV_AT_EPOCH": 94249, "BSTAR": 0.00016381188, "MEAN_MOTION_DOT": 1.43e-06, "MEAN_MOTION_DDOT": 0}, "tle": {"line1": "1 32180U 99025CUA 25345.37795727  .00000143  00000+0  16381-3 0  9994", "line2": "2 32180  99.5861  25.4776 0136300 214.0644 169.2809 13.82327177942493"}}, "geometry": {"type": "Point", "coordinates": [81.00717229043569, -78.14832000177313]}}, {"type": "Feature", "properties": {"norad_id": 32181, "name": "FENGYUN 1C DEB", "group": "fengyun-1c-debris", "lat": -25.44186356773734, "lon": 95.64312255044607, "alt_km": 728.7903502473127, "timestamp": "2025-12-13T05:42:57.845678+00:00", "meta": {"OBJECT_NAME": "FENGYUN 1C DEB", "OBJECT_ID": "1999-025CUB", "EPOCH": "2025-12-11T12:40:18.432768", "MEAN_MOTION": 14.56014593, "ECCENTRICITY": 0.00737728, "INCLINATION": 99.4727, "RA_OF_ASC_NODE": 89.1481, "ARG_OF_PERICENTER": 89.0035, "MEAN_ANOMALY": 286.9682, "EPHEMERIS_TYPE": 0, "CLASSIFICATION_TYPE": "U", "NORAD_CAT_ID": 32181, "ELEMENT_SET_NO": 999, "REV_AT_EPOCH": 96703, "BSTAR": 0.0012142137, "MEAN_MOTION_DOT": 5.488e-05, "MEAN_MOTION_DDOT": 0}, "tle": {"line1": "1 32181U 99025CUB 25345.52799112  .00005488  00000+0  12142-2 0  9991", "line2": "2 32181  99.4727  89.1481 0073772  89.0035 286.9682 14.56014593967031"}}, "geometry": {"type": "Point", "coordinates": [95.64312255044607, -25.44186356773734]}}, {"type": "Feature", "properties": {"norad_id": 32183, "name": "FENGYUN 1C DEB", "group": "fengyun-1c-debris", "lat": 64.9146888378282, "lon": 19.301783039090573, "alt_km": 821.9725637348238, "timestamp": "2025-12-13T05:42:57.845689+00:00", "meta": {"OBJECT_NAME": "FENGYUN 1C DEB", "OBJECT_ID": "1999-025CUD", "EPOCH": "2025-12-12T02:09:25.556832", "MEAN_MOTION": 14.10082566, "ECCENTRICITY": 0.00427768, "INCLINATION": 98.7133, "RA_OF_ASC_NODE": 37.3127, "ARG_OF_PERICENTER": 62.7157, "MEAN_ANOMALY": 297.8361, "EPHEMERIS_TYPE": 0, "CLASSIFICATION_TYPE": "U", "NORAD_CAT_ID": 32183, "ELEMENT_SET_NO": 999, "REV_AT_EPOCH": 72755, "BSTAR": 0.00096389265, "MEAN_MOTION_DOT": 1.675e-05, "MEAN_MOTION_DDOT": 0}, "tle": {"line1": "1 32183U 99025CUD 25346.08987913  .00001675  00000+0  96389-3 0  9993", "line2": "2 32183  98.7133  37.3127 0042776  62.7157 297.8361 14.10082566727552"}}, "geometry": {"type": "Point", "coordinates": [19.301783039090573, 64.9146888378282]}}]}